[{"OBJECT_NAME":"TEN-KOH","OBJECT_ID":"2018-084G","EPOCH":"2026-03-09T23:23:52.653408","MEAN_MOTION":15.02465351,"ECCENTRICITY":0.0011972,"INCLINATION":98.0798,"RA_OF_ASC_NODE":257.1735,"ARG_OF_PERICENTER":91.8355,"MEAN_ANOMALY":268.424,"EPHEMERIS_TYPE":0,"CLASSIFICATION_TYPE":"U","NORAD_CAT_ID":43677,"ELEMENT_SET_NO":999,"REV_AT_EPOCH":40126,"BSTAR":0.00025918134,"MEAN_MOTION_DOT":3.377e-5,"MEAN_MOTION_DDOT":0},{"OBJECT_NAME":"STARLINK-5612","OBJECT_ID":"2023-028P","EPOCH":"2026-03-09T21:34:38.158464","MEAN_MOTION":14.98331533,"ECCENTRICITY":0.00029939,"INCLINATION":69.9996,"RA_OF_ASC_NODE":243.8394,"ARG_OF_PERICENTER":269.4105,"MEAN_ANOMALY":90.6711,"EPHEMERIS_TYPE":0,"CLASSIFICATION_TYPE":"U","NORAD_CAT_ID":55754,"ELEMENT_SET_NO":999,"REV_AT_EPOCH":16607,"BSTAR":-2.0997489e-5,"MEAN_MOTION_DOT":-3.44e-6,"MEAN_MOTION_DDOT":0}]
